NORAD_CAT_ID,OBJECT_NAME,OBJECT_TYPE,EPOCH,MEAN_MOTION,ECCENTRICITY,INCLINATION,RA_OF_ASC_NODE,ARG_OF_PERICENTER,MEAN_ANOMALY,BSTAR,MEAN_MOTION_DOT,MEAN_MOTION_DDOT,TLE_LINE0,TLE_LINE1,TLE_LINE2,SEMIMAJOR_AXIS,PERIOD,APOGEE,PERIGEE,DECAYED
50831.0,STARLINK-3299,PAYLOAD,2023-09-06 05:23:14,15.08833916,0.0001102,53.218,318.8715,93.9661,266.1457,0.00025238,3.73e-05,0.0,0 STARLINK-3299,1 50831U 22001AE  23249.22446958  .00003730  00000-0  25238-3 0  9998,2 50831  53.2180 318.8715 0001102  93.9661 266.1457 15.08833916 92207,6917.899,95.438,540.526,539.002,0.0
50831.0,STARLINK-3299,PAYLOAD,2023-09-06 16:30:55,15.08842649,0.0001331,53.2167,316.7892,80.6309,279.4834,0.00025705,3.806e-05,0.0,0 STARLINK-3299,1 50831U 22001AE  23249.68814645  .00003806  00000-0  25705-3 0  9993,2 50831  53.2167 316.7892 0001331  80.6309 279.4834 15.08842649 93548,6917.872,95.437,540.658,538.817,0.0
50831.0,STARLINK-3299,PAYLOAD,2023-09-07 08:24:47,15.08841635,0.0001401,53.2162,313.8151,91.8251,268.2901,3.0571e-05,1.99e-06,0.0,0 STARLINK-3299,1 50831U 22001AE  23250.35054596  .00000199  00000-0  30571-4 0  9990,2 50831  53.2162 313.8151 0001401  91.8251 268.2901 15.08841635 92372,6917.875,95.437,540.71,538.771,0.0
50831.0,STARLINK-3299,PAYLOAD,2023-09-07 14:46:19,15.0884534,0.0001477,53.2171,312.6266,70.7764,289.3387,7.9311e-05,9.75e-06,0.0,0 STARLINK-3299,1 50831U 22001AE  23250.61550423  .00000975  00000-0  79311-4 0  9996,2 50831  53.2171 312.6266 0001477  70.7764 289.3387 15.08845340 92418,6917.864,95.437,540.751,538.707,0.0
50831.0,STARLINK-3299,PAYLOAD,2023-09-08 09:50:57,15.0883711,0.0001504,53.2179,309.0576,81.7095,278.4067,-1.8222e-05,-5.78e-06,0.0,0 STARLINK-3299,1 50831U 22001AE  23251.41038907 -.00000578  00000-0 -18222-4 0  9998,2 50831  53.2179 309.0576 0001504  81.7095 278.4067 15.08837110 93804,6917.889,95.438,540.795,538.714,0.0
50831.0,STARLINK-3299,PAYLOAD,2023-09-08 11:26:20,15.0884075,0.0001235,53.2163,308.7598,87.9611,272.1523,3.7657e-05,3.12e-06,0.0,0 STARLINK-3299,1 50831U 22001AE  23251.47662557  .00000312  00000-0  37657-4 0  9995,2 50831  53.2163 308.7598 0001235  87.9611 272.1523 15.08840750 92542,6917.878,95.438,540.597,538.889,0.0
50831.0,STARLINK-3299,PAYLOAD,2023-09-08 16:12:29,15.08842281,0.0001304,53.2179,307.8645,93.6859,266.4282,7.8437e-05,9.61e-06,0.0,0 STARLINK-3299,1 50831U 22001AE  23251.67534502  .00000961  00000-0  78437-4 0  9996,2 50831  53.2179 307.8645 0001304  93.6859 266.4282 15.08842281 92579,6917.873,95.437,540.641,538.836,0.0
50831.0,STARLINK-3299,PAYLOAD,2023-09-09 11:17:08,15.08808599,0.0001435,53.2175,304.301,99.0874,261.028,0.00060191,9.296e-05,0.0,0 STARLINK-3299,1 50831U 22001AE  23252.47024032  .00009296  00000-0  60191-3 0  9994,2 50831  53.2175 304.3010 0001435  99.0874 261.0280 15.08808599 93962,6917.976,95.44,540.834,538.849,0.0
50831.0,STARLINK-3299,PAYLOAD,2023-09-09 12:52:30,15.08845694,0.0001241,53.2175,304.0036,80.7733,279.3399,7.2247e-05,8.62e-06,0.0,0 STARLINK-3299,1 50831U 22001AE  23252.53646830  .00000862  00000-0  72247-4 0  9993,2 50831  53.2175 304.0036 0001241  80.7733 279.3399 15.08845694 92704,6917.863,95.437,540.586,538.869,0.0
50831.0,STARLINK-3299,PAYLOAD,2023-09-10 12:43:17,15.08850864,0.0001257,53.2166,299.543,79.2972,280.8162,0.00026732,3.97e-05,0.0,0 STARLINK-3299,1 50831U 22001AE  23253.53006525  .00003970  00000-0  26732-3 0  9995,2 50831  53.2166 299.5430 0001257  79.2972 280.8162 15.08850864 92851,6917.847,95.437,540.582,538.843,0.0
50831.0,STARLINK-3299,PAYLOAD,2023-09-11 03:01:46,15.08839044,0.0001167,53.2165,296.866,95.9921,264.1204,0.00014072,1.952e-05,0.0,0 STARLINK-3299,1 50831U 22001AE  23254.12623113  .00001952  00000-0  14072-3 0  9991,2 50831  53.2165 296.8660 0001167  95.9921 264.1204 15.08839044 94215,6917.883,95.438,540.556,538.941,0.0
50831.0,STARLINK-3299,PAYLOAD,2023-09-11 12:34:05,15.08843545,0.0001275,53.2168,295.0821,89.0011,271.1127,0.0001016,1.33e-05,0.0,0 STARLINK-3299,1 50831U 22001AE  23254.52366927  .00001330  00000-0  10160-3 0  9996,2 50831  53.2168 295.0821 0001275  89.0011 271.1127 15.08843545 93001,6917.87,95.437,540.617,538.853,0.0
50831.0,STARLINK-3299,PAYLOAD,2023-09-12 09:14:05,15.08850017,0.0001349,53.2168,291.2156,96.7882,263.3264,0.00013785,1.907e-05,0.0,0 STARLINK-3299,1 50831U 22001AE  23255.38478455  .00001907  00000-0  13785-3 0  9997,2 50831  53.2168 291.2156 0001349  96.7882 263.3264 15.08850017 94405,6917.85,95.437,540.648,538.782,0.0
50831.0,STARLINK-3299,PAYLOAD,2023-09-12 14:00:14,15.08853843,0.0001408,53.2169,290.323,101.2193,258.8957,0.00020091,2.912e-05,0.0,0 STARLINK-3299,1 50831U 22001AE  23255.58350167  .00002912  00000-0  20091-3 0  9993,2 50831  53.2169 290.3230 0001408 101.2193 258.8957 15.08853843 93162,6917.838,95.437,540.677,538.729,0.0
50831.0,STARLINK-3299,PAYLOAD,2023-09-13 09:04:52,15.08846407,0.0001472,53.2164,286.7544,94.6264,265.4897,0.00015432,2.169e-05,0.0,0 STARLINK-3299,1 50831U 22001AE  23256.37838503  .00002169  00000-0  15432-3 0  9993,2 50831  53.2164 286.7544 0001472  94.6264 265.4897 15.08846407 94558,6917.861,95.437,540.744,538.707,0.0
50831.0,STARLINK-3299,PAYLOAD,2023-09-13 13:51:01,15.08854584,0.0001439,53.2168,285.8618,97.4277,262.6879,0.00025611,3.792e-05,0.0,0 STARLINK-3299,1 50831U 22001AE  23256.57709975  .00003792  00000-0  25611-3 0  9998,2 50831  53.2168 285.8618 0001439  97.4277 262.6879 15.08854584 94589,6917.836,95.437,540.696,538.705,0.0
50831.0,STARLINK-3299,PAYLOAD,2023-09-13 18:37:12,15.08828416,0.0002204,53.2168,284.9697,82.5776,277.5466,-0.00012698,-2.308e-05,0.0,0 STARLINK-3299,1 50831U 22001AE  23256.77583503 -.00002308  00000-0 -12698-3 0  9992,2 50831  53.2168 284.9697 0002204  82.5776 277.5466 15.08828416 93341,6917.916,95.438,541.306,538.256,0.0
50831.0,STARLINK-3299,PAYLOAD,2023-09-14 02:34:07,15.08828475,0.0001775,53.2166,283.4836,85.2165,274.903,-0.00010908,-2.023e-05,0.0,0 STARLINK-3299,1 50831U 22001AE  23257.10703533 -.00002023  00000-0 -10908-3 0  9993,2 50831  53.2166 283.4836 0001775  85.2165 274.9030 15.08828475 94661,6917.916,95.438,541.009,538.553,0.0
50831.0,STARLINK-3299,PAYLOAD,2023-09-14 08:55:40,15.08821863,0.0001521,53.2169,282.2955,90.1718,269.9448,-0.00026597,-4.516e-05,0.0,0 STARLINK-3299,1 50831U 22001AE  23257.37199746 -.00004516  00000-0 -26597-3 0  9997,2 50831  53.2169 282.2955 0001521  90.1718 269.9448 15.08821863 93436,6917.936,95.439,540.853,538.749,0.0
50831.0,STARLINK-3299,PAYLOAD,2023-09-14 18:27:59,15.08824612,0.0001499,53.2169,280.5131,102.1423,257.9737,-6.2751e-05,-1.286e-05,0.0,0 STARLINK-3299,1 50831U 22001AE  23257.76944137 -.00001286  00000-0 -62751-4 0  9996,2 50831  53.2169 280.5131 0001499 102.1423 257.9737 15.08824612 93493,6917.927,95.439,540.829,538.755,0.0
50831.0,STARLINK-3299,PAYLOAD,2023-09-15 10:21:51,15.08838187,0.0001409,53.216,277.5381,91.4539,268.6615,0.00026467,3.927e-05,0.0,0 STARLINK-3299,1 50831U 22001AE  23258.43184264  .00003927  00000-0  26467-3 0  9993,2 50831  53.2160 277.5381 0001409  91.4539 268.6615 15.08838187 94864,6917.886,95.438,540.726,538.776,0.0
50831.0,STARLINK-3299,PAYLOAD,2023-09-16 10:12:37,15.08866508,0.0001401,53.2152,273.076,82.6552,277.4599,0.00079662,0.00012422,0.0,0 STARLINK-3299,1 50831U 22001AE  23259.42543511  .00012422  00000-0  79662-3 0  9992,2 50831  53.2152 273.0760 0001401  82.6552 277.4599 15.08866508 95011,6917.799,95.436,540.634,538.695,0.0
50831.0,STARLINK-3299,PAYLOAD,2023-09-16 18:09:33,15.08845638,0.0001399,53.2151,271.5891,88.7656,271.3497,-0.00018266,-3.194e-05,0.0,0 STARLINK-3299,1 50831U 22001AE  23259.75663543 -.00003194  00000-0 -18266-3 0  9997,2 50831  53.2151 271.5891 0001399  88.7656 271.3497 15.08845638 95062,6917.863,95.437,540.696,538.76,0.0
50831.0,STARLINK-3299,PAYLOAD,2023-09-17 10:03:24,15.08856355,0.0001413,53.2151,268.6152,90.6451,269.4703,0.0007367,0.00011461,0.0,0 STARLINK-3299,1 50831U 22001AE  23260.41903329  .00011461  00000-0  73670-3 0  9995,2 50831  53.2151 268.6152 0001413  90.6451 269.4703 15.08856355 93896,6917.83,95.437,540.673,538.718,0.0
50831.0,STARLINK-3299,PAYLOAD,2023-09-18 00:21:53,15.08842108,0.0001544,53.2152,265.9388,89.3537,270.7632,0.00045745,7e-05,0.0,0 STARLINK-3299,1 50831U 22001AE  23261.01519718  .00007000  00000-0  45745-3 0  9993,2 50831  53.2152 265.9388 0001544  89.3537 270.7632 15.08842108 95252,6917.874,95.437,540.807,538.671,0.0
50831.0,STARLINK-3299,PAYLOAD,2023-09-18 11:29:34,15.08847547,0.0001421,53.2159,263.8568,91.4362,268.6793,0.00017631,2.52e-05,0.0,0 STARLINK-3299,1 50831U 22001AE  23261.47887504  .00002520  00000-0  17631-3 0  9999,2 50831  53.2159 263.8568 0001421  91.4362 268.6793 15.08847547 94053,6917.857,95.437,540.705,538.739,0.0
50831.0,STARLINK-3299,PAYLOAD,2023-09-18 17:51:07,15.08842868,0.0001455,53.2161,262.6672,89.7886,270.3272,0.00012329,1.675e-05,0.0,0 STARLINK-3299,1 50831U 22001AE  23261.74383709  .00001675  00000-0  12329-3 0  9996,2 50831  53.2161 262.6672 0001455  89.7886 270.3272 15.08842868 95365,6917.872,95.437,540.743,538.73,0.0
50831.0,STARLINK-3299,PAYLOAD,2023-09-19 09:44:58,15.08856572,0.0001485,53.2167,259.692,95.3104,264.8057,0.00038163,5.794e-05,0.0,0 STARLINK-3299,1 50831U 22001AE  23262.40623060  .00005794  00000-0  38163-3 0  9997,2 50831  53.2167 259.6920 0001485  95.3104 264.8057 15.08856572 95469,6917.83,95.437,540.722,538.667,0.0
50831.0,STARLINK-3299,PAYLOAD,2023-09-20 04:49:36,15.08837695,0.0001537,53.2169,256.1241,96.6766,263.4401,6.5716e-05,7.58e-06,0.0,0 STARLINK-3299,1 50831U 22001AE  23263.20111866  .00000758  00000-0  65716-4 0  9992,2 50831  53.2169 256.1241 0001537  96.6766 263.4401 15.08837695 95581,6917.887,95.438,540.816,538.689,0.0
50831.0,STARLINK-3299,PAYLOAD,2023-09-20 11:11:09,15.08837896,0.0001549,53.2171,254.9345,95.2665,264.8504,0.00015289,2.146e-05,0.0,0 STARLINK-3299,1 50831U 22001AE  23263.46608007  .00002146  00000-0  15289-3 0  9990,2 50831  53.2171 254.9345 0001549  95.2665 264.8504 15.08837896 94357,6917.887,95.438,540.823,538.68,0.0
